{
  "type": "FeatureCollection",
  "features": [
    {
      "type": "Feature",
      "properties": {
        "norad_id": 34765,
        "name": "IRIDIUM 33 DEB",
        "group": "iridium-33-debris",
        "lat": -69.5723053469202,
        "lon": -140.28976828362212,
        "alt_km": 758.8538095158538,
        "timestamp": "2025-12-19T14:48:36.632937+00:00",
        "meta_object_name": "IRIDIUM 33 DEB",
        "meta_object_id": "1997-051LJ",
        "meta_epoch": "2025-12-18T13:21:25.941600",
        "meta_mean_motion": 14.40479279,
        "meta_eccentricity": 0.00160914,
        "meta_inclination": 86.3386,
        "meta_ra_of_asc_node": 30.2656,
        "meta_arg_of_pericenter": 191.4295,
        "meta_mean_anomaly": 322.071,
        "meta_ephemeris_type": 0,
        "meta_classification_type": "U",
        "meta_norad_cat_id": 34765,
        "meta_element_set_no": 999,
        "meta_rev_at_epoch": 87697,
        "meta_bstar": 0.00029987235,
        "meta_mean_motion_dot": 9.74e-06,
        "meta_mean_motion_ddot": 0,
        "tle_line1": "1 34765U 97051LJ  25352.55655025  .00000974  00000+0  29987-3 0  9994",
        "tle_line2": "2 34765  86.3386  30.2656 0016091 191.4295 322.0710 14.40479279876970"
      },
      "geometry": {
        "type": "Point",
        "coordinates": [
          -140.28976828362212,
          -69.5723053469202
        ]
      }
    },
    {
      "type": "Feature",
      "properties": {
        "norad_id": 34833,
        "name": "IRIDIUM 33 DEB",
        "group": "iridium-33-debris",
        "lat": -69.86283766858267,
        "lon": 38.12500488418741,
        "alt_km": 738.1117776259043,
        "timestamp": "2025-12-19T14:48:36.632948+00:00",
        "meta_object_name": "IRIDIUM 33 DEB",
        "meta_object_id": "1997-051MH",
        "meta_epoch": "2025-12-19T03:48:32.105088",
        "meta_mean_motion": 14.52413919,
        "meta_eccentricity": 0.00216401,
        "meta_inclination": 86.3931,
        "meta_ra_of_asc_node": 48.2278,
        "meta_arg_of_pericenter": 79.0912,
        "meta_mean_anomaly": 335.6925,
        "meta_ephemeris_type": 0,
        "meta_classification_type": "U",
        "meta_norad_cat_id": 34833,
        "meta_element_set_no": 999,
        "meta_rev_at_epoch": 87808,
        "meta_bstar": 0.00053191579,
        "meta_mean_motion_dot": 2.194e-05,
        "meta_mean_motion_ddot": 0,
        "tle_line1": "1 34833U 97051MH  25353.15870492  .00002194  00000+0  53192-3 0  9995",
        "tle_line2": "2 34833  86.3931  48.2278 0021640  79.0912 335.6925 14.52413919878088"
      },
      "geometry": {
        "type": "Point",
        "coordinates": [
          38.12500488418741,
          -69.86283766858267
        ]
      }
    },
    {
      "type": "Feature",
      "properties": {
        "norad_id": 34870,
        "name": "IRIDIUM 33 DEB",
        "group": "iridium-33-debris",
        "lat": 41.99212864741421,
        "lon": 127.60373597717323,
        "alt_km": 625.7344408370409,
        "timestamp": "2025-12-19T14:48:36.632958+00:00",
        "meta_object_name": "IRIDIUM 33 DEB",
        "meta_object_id": "1997-051MQ",
        "meta_epoch": "2025-12-17T15:48:12.189024",
        "meta_mean_motion": 14.76525212,
        "meta_eccentricity": 0.00169592,
        "meta_inclination": 86.3102,
        "meta_ra_of_asc_node": 311.8309,
        "meta_arg_of_pericenter": 164.6796,
        "meta_mean_anomaly": 8.9227,
        "meta_ephemeris_type": 0,
        "meta_classification_type": "U",
        "meta_norad_cat_id": 34870,
        "meta_element_set_no": 999,
        "meta_rev_at_epoch": 88983,
        "meta_bstar": 0.0011120343,
        "meta_mean_motion_dot": 7.793e-05,
        "meta_mean_motion_ddot": 0,
        "tle_line1": "1 34870U 97051MQ  25351.65847441  .00007793  00000+0  11120-2 0  9991",
        "tle_line2": "2 34870  86.3102 311.8309 0016959 164.6796   8.9227 14.76525212889837"
      },
      "geometry": {
        "type": "Point",
        "coordinates": [
          127.60373597717323,
          41.99212864741421
        ]
      }
    },
    {
      "type": "Feature",
      "properties": {
        "norad_id": 34896,
        "name": "IRIDIUM 33 DEB",
        "group": "iridium-33-debris",
        "lat": 85.1749087044768,
        "lon": 13.121336523348507,
        "alt_km": 669.2036253017977,
        "timestamp": "2025-12-19T14:48:36.632969+00:00",
        "meta_object_name": "IRIDIUM 33 DEB",
        "meta_object_id": "1997-051MY",
        "meta_epoch": "2025-12-17T17:20:43.717344",
        "meta_mean_motion": 14.6632638,
        "meta_eccentricity": 0.00248916,
        "meta_inclination": 86.3286,
        "meta_ra_of_asc_node": 324.4498,
        "meta_arg_of_pericenter": 196.3048,
        "meta_mean_anomaly": 337.3904,
        "meta_ephemeris_type": 0,
        "meta_classification_type": "U",
        "meta_norad_cat_id": 34896,
        "meta_element_set_no": 999,
        "meta_rev_at_epoch": 87692,
        "meta_bstar": 0.00069874419,
        "meta_mean_motion_dot": 3.895e-05,
        "meta_mean_motion_ddot": 0,
        "tle_line1": "1 34896U 97051MY  25351.72272821  .00003895  00000+0  69874-3 0  9990",
        "tle_line2": "2 34896  86.3286 324.4498 0024891 196.3048 337.3904 14.66326380876924"
      },
      "geometry": {
        "type": "Point",
        "coordinates": [
          13.121336523348507,
          85.1749087044768
        ]
      }
    },
    {
      "type": "Feature",
      "properties": {
        "norad_id": 34926,
        "name": "IRIDIUM 33 DEB",
        "group": "iridium-33-debris",
        "lat": -63.13934279870845,
        "lon": -167.2382561564488,
        "alt_km": 669.8427761723924,
        "timestamp": "2025-12-19T14:48:36.632979+00:00",
        "meta_object_name": "IRIDIUM 33 DEB",
        "meta_object_id": "1997-051NF",
        "meta_epoch": "2025-12-18T12:00:33.859296",
        "meta_mean_motion": 14.54673553,
        "meta_eccentricity": 0.007466,
        "meta_inclination": 86.1318,
        "meta_ra_of_asc_node": 5.6024,
        "meta_arg_of_pericenter": 272.8788,
        "meta_mean_anomaly": 246.5366,
        "meta_ephemeris_type": 0,
        "meta_classification_type": "U",
        "meta_norad_cat_id": 34926,
        "meta_element_set_no": 999,
        "meta_rev_at_epoch": 86540,
        "meta_bstar": 0.0047273408,
        "meta_mean_motion_dot": 0.00021041,
        "meta_mean_motion_ddot": 0,
        "tle_line1": "1 34926U 97051NF  25352.50039189  .00021041  00000+0  47273-2 0  9990",
        "tle_line2": "2 34926  86.1318   5.6024 0074660 272.8788 246.5366 14.54673553865403"
      },
      "geometry": {
        "type": "Point",
        "coordinates": [
          -167.2382561564488,
          -63.13934279870845
        ]
      }
    },
    {
      "type": "Feature",
      "properties": {
        "norad_id": 34985,
        "name": "IRIDIUM 33 DEB",
        "group": "iridium-33-debris",
        "lat": 57.86536237034661,
        "lon": 59.74713412796887,
        "alt_km": 757.6808050801264,
        "timestamp": "2025-12-19T14:48:36.632989+00:00",
        "meta_object_name": "IRIDIUM 33 DEB",
        "meta_object_id": "1997-051NR",
        "meta_epoch": "2025-12-18T03:42:15.992064",
        "meta_mean_motion": 14.42032375,
        "meta_eccentricity": 0.00213063,
        "meta_inclination": 86.3697,
        "meta_ra_of_asc_node": 54.5701,
        "meta_arg_of_pericenter": 201.5738,
        "meta_mean_anomaly": 187.9746,
        "meta_ephemeris_type": 0,
        "meta_classification_type": "U",
        "meta_norad_cat_id": 34985,
        "meta_element_set_no": 999,
        "meta_rev_at_epoch": 87253,
        "meta_bstar": 0.00049263148,
        "meta_mean_motion_dot": 1.64e-05,
        "meta_mean_motion_ddot": 0,
        "tle_line1": "1 34985U 97051NR  25352.15435176  .00001640  00000+0  49263-3 0  9997",
        "tle_line2": "2 34985  86.3697  54.5701 0021306 201.5738 187.9746 14.42032375872538"
      },
      "geometry": {
        "type": "Point",
        "coordinates": [
          59.74713412796887,
          57.86536237034661
        ]
      }
    },
    {
      "type": "Feature",
      "properties": {
        "norad_id": 35051,
        "name": "IRIDIUM 33 DEB",
        "group": "iridium-33-debris",
        "lat": 50.50535600327761,
        "lon": -178.60960546499598,
        "alt_km": 724.8413631181702,
        "timestamp": "2025-12-19T14:48:36.632999+00:00",
        "meta_object_name": "IRIDIUM 33 DEB",
        "meta_object_id": "1997-051NX",
        "meta_epoch": "2025-12-19T07:34:48.668448",
        "meta_mean_motion": 14.47625509,
        "meta_eccentricity": 0.00104834,
        "meta_inclination": 86.3238,
        "meta_ra_of_asc_node": 5.9957,
        "meta_arg_of_pericenter": 72.9006,
        "meta_mean_anomaly": 287.3345,
        "meta_ephemeris_type": 0,
        "meta_classification_type": "U",
        "meta_norad_cat_id": 35051,
        "meta_element_set_no": 999,
        "meta_rev_at_epoch": 87091,
        "meta_bstar": 0.00045048396,
        "meta_mean_motion_dot": 1.68e-05,
        "meta_mean_motion_ddot": 0,
        "tle_line1": "1 35051U 97051NX  25353.31584107  .00001680  00000+0  45048-3 0  9991",
        "tle_line2": "2 35051  86.3238   5.9957 0010483  72.9006 287.3345 14.47625509870911"
      },
      "geometry": {
        "type": "Point",
        "coordinates": [
          -178.60960546499598,
          50.50535600327761
        ]
      }
    }
  ]
}